LEMUR-2-JOHANLORAN      
1 44084U 19018G   22265.44713137  .00031767  00000+0  76044-3 0  9993
2 44084  97.3062 326.8486 0010617 120.2913 239.9386 15.41331436193687
LEMUR-2-BEAUDACIOUS     
1 44085U 19018H   22264.41629142  .00018312  00000+0  53098-3 0  9997
2 44085  97.3044 324.2182 0011522 127.9550 232.2736 15.35524078193437
LEMUR-2-ELHAM           
1 44086U 19018J   22265.40687412  .00021754  00000+0  57597-3 0  9994
2 44086  97.3082 326.7874 0010833 122.2635 237.9662 15.38327158193669
LEMUR-2-VICTOR-ANDREW   
1 44087U 19018K   22264.58831504  .00035420  00000+0  84231-3 0  9996
2 44087  97.3085 326.6904 0010290 122.4087 237.8157 15.41511717193596
LEMUR-2-LILLYJO         
1 44396U 19038L   22265.47479341  .00010095  00000+0  45524-3 0  9990
2 44396  97.6263 235.9135 0021756 142.1924 218.0845 15.21012942177812
LEMUR-2-WANLI           
1 44402U 19038S   22265.39505573  .00008964  00000+0  41467-3 0  9990
2 44402  97.6286 235.5511 0021910 144.6933 215.5757 15.20169399177786
LEMUR-2-MORAG           
1 44403U 19038T   22265.20809892  .00008277  00000+0  37881-3 0  9994
2 44403  97.6321 236.3377 0020665 147.3323 212.9195 15.20589416177788
LEMUR-2-DUSTINTHEWIND   
1 44405U 19038V   22264.61136299  .00008787  00000+0  40864-3 0  9995
2 44405  97.6284 234.6109 0021759 146.9526 213.3073 15.19995681177667
LEMUR-2-ALEX-MADDY      
1 44407U 19038X   22265.18156629  .00005954  00000+0  29377-3 0  9998
2 44407  97.6377 235.0597 0021420 153.1966 207.0379 15.18095405177675
LEMUR-2-EJATTA          
1 44409U 19038Z   22264.69957159  .00008363  00000+0  37418-3 0  9994
2 44409  97.6260 235.4512 0021368 142.5754 217.6974 15.21348904177731
LEMUR-2-GREGROBINSON    
1 44411U 19038AB  22264.69961377  .00011642  00000+0  53685-3 0  9992
2 44411  97.6333 235.7633 0020758 150.7387 209.5015 15.20224670177364
LEMUR-2-YNDRD           
1 44413U 19038AD  22265.15287560  .00005786  00000+0  28810-3 0  9995
2 44413  97.6362 234.7911 0021310 153.4772 206.7556 15.17790522177672
LEMUR-2-JPGSQUARED      
1 44855U 19089D   22265.10301908  .00006175  00000+0  44728-3 0  9998
2 44855  36.9642 243.9127 0006826 280.1045  79.8928 15.03684201152560
LEMUR-2-HIMOMANDDAD     
1 44860U 19089J   22264.35514429  .00006260  00000+0  45632-3 0  9994
2 44860  36.9642 249.9504 0007003 269.5615  90.4326 15.03439329152316
LEMUR-2-PAPPY           
1 44861U 19089K   22264.67160765  .00006146  00000+0  44818-3 0  9998
2 44861  36.9641 247.8397 0006833 271.6863  88.3098 15.03435420152424
LEMUR-2-THEODOSIA       
1 44863U 19089M   22264.35337618  .00007449  00000+0  53893-3 0  9998
2 44863  36.9635 248.9797 0007144 274.3432  85.6495 15.03635847152294
LEMUR-2-ETHANOAKES      
1 46298U 20061AC  22264.92417969  .00010970  00000+0  52782-3 0  9994
2 46298  97.4429 334.9201 0001499 151.1678 208.9640 15.18950694113147
LEMUR-2-OSCARLATOR      
1 46299U 20061AD  22264.44498019  .00014258  00000+0  67828-3 0  9997
2 46299  97.4435 334.5255 0001123 157.0510 203.0775 15.19282937113104
LEMUR-2-SCHMIDTFALL     
1 46315U 20061AV  22264.43246137  .00014526  00000+0  67978-3 0  9991
2 46315  97.4442 335.0399 0002824 161.4545 198.6793 15.19844176113177
LEMUR-2-DJUPROERA       
1 46316U 20061AW  22265.46933446  .00013920  00000+0  63979-3 0  9996
2 46316  97.4439 336.1950 0002973 158.5851 201.5509 15.20476641113349
LEMUR-2-SQUAREJAWS      
1 46317U 20061AX  22264.44732168  .00015017  00000+0  69586-3 0  9991
2 46317  97.4437 335.1311 0002942 158.1573 201.9788 15.20177298113193
LEMUR-2-URSA-AVION      
1 46318U 20061AY  22264.44730582  .00013534  00000+0  62915-3 0  9991
2 46318  97.4434 335.1243 0003012 158.6820 201.4541 15.20089937113198
LEMUR-2-SLICERS         
1 46500U 20068Q   22264.28951619  .00008566  00000+0  57871-3 0  9993
2 46500  97.7255 205.0791 0011705 338.8858  21.1874 15.06773585108530
LEMUR-2-DAYWZAGOODDAY   
1 46501U 20068R   22264.27704880  .00007740  00000+0  51861-3 0  9995
2 46501  97.7287 205.2890 0011906 338.4871  21.5617 15.07112068108535
LEMUR-2-SUSURRUS        
1 46502U 20068S   22264.55588721  .00007802  00000+0  52732-3 0  9998
2 46502  97.7254 205.3379 0012529 339.4724  20.5951 15.06784449108574
LEMUR-2-NICHOL          
1 46503U 20068T   22264.31242948  .00008465  00000+0  57228-3 0  9992
2 46503  97.7244 205.0430 0011933 343.9035  16.1776 15.06748965108537
LEMUR-2-OZARAK          
1 46908U 20081D   22265.00748451  .00006810  00000+0  50632-3 0  9997
2 46908  36.9005  10.5079 0005836 131.0563 229.0610 15.02647059102692
LEMUR-2-JINDRA          
1 46909U 20081E   22264.57141560  .00007985  00000+0  58334-3 0  9998
2 46909  36.8995  11.6663 0005773 132.9182 227.1945 15.03238698102650
LEMUR-2-WALLACE         
1 46910U 20081F   22264.59240156  .00007745  00000+0  56916-3 0  9991
2 46910  36.8977  11.8231 0005864 132.1547 227.9632 15.03029665102645
LEMUR-2-JEREMIAH        
1 46911U 20081G   22264.37385047  .00007080  00000+0  52258-3 0  9994
2 46911  36.9015  12.8804 0005227 132.6914 227.4237 15.02904181102621
LEMUR-2-NEVA            
1 47450U 21006AP  22265.38938374  .00008756  00000+0  42121-3 0  9999
2 47450  97.4367 323.5155 0008611 303.7766  56.2648 15.18994624 92001
LEMUR-2-SAOIRSEDH5GUO   
1 47453U 21006AS  22264.39627499  .00011511  00000+0  54912-3 0  9999
2 47453  97.4389 322.6183 0007448 310.2970  49.7613 15.19215017 91849
LEMUR-2-NALLYWACKER     
1 47457U 21006AW  22265.04005057  .00010834  00000+0  51376-3 0  9994
2 47457  97.4366 323.2323 0008291 305.1140  54.9317 15.19433708 91950
LEMUR-2-MANGO1          
1 47493U 21006CJ  22264.47002607  .00007198  00000+0  35886-3 0  9995
2 47493  97.4316 321.7168 0008131 311.7969  48.2570 15.17814638 91837
LEMUR-2-RUAIRI-EILIDH   
1 47511U 21006DC  22264.95076557  .00008661  00000+0  42918-3 0  9994
2 47511  97.4306 321.8120 0005771 315.9776  44.0997 15.17978119 91882
LEMUR-2-JENNIFERSONG    
1 47525U 21006DR  22264.90539588  .00010848  00000+0  51485-3 0  9991
2 47525  97.4324 322.7622 0008395 305.2563  54.7885 15.19402968 91931
LEMUR-2-CHANTAL         
1 47529U 21006DV  22264.10471254  .00009481  00000+0  47896-3 0  9994
2 47529  97.4315 320.7578 0005287 323.2052  36.8818 15.17278931 92693
LEMUR-2-NOOBNOOB        
1 47538U 21006DY  22264.90364439  .00009359  00000+0  45603-3 0  9996
2 47538  97.4379 322.9217 0008310 307.4060  52.6417 15.18528131 91916
LEMUR-2-AMANDA-SVANTE   
1 48269U 21034B   22265.45058752  .00002980  00000+0  33107-3 0  9997
2 48269  97.7411 334.4060 0004805 112.6581 247.5144 14.87930706 75959
LEMUR-2-SPECIAL-K       
1 48273U 21034F   22265.52697092  .00003617  00000+0  40069-3 0  9999
2 48273  97.7412 334.4581 0004828 109.3426 250.8313 14.87915230 75971
LEMUR-2-JACKSON         
1 48885U 21059G   22264.33119376  .00011536  00000+0  56536-3 0  9992
2 48885  97.5638  33.8478 0008631 127.8007 232.4010 15.18272670 68486
LEMUR-2-ANNABANANA      
1 48923U 21059AW  22264.60852586  .00011412  00000+0  53555-3 0  9993
2 48923  97.5573  34.5133 0011870 116.2276 244.0180 15.19752979 68575
LEMUR-2-JOHN-TREIRES    
1 48925U 21059AY  22264.58693744  .00014010  00000+0  64073-3 0  9995
2 48925  97.5644  35.1295 0014158 119.1804 241.0849 15.20565055 68593
LEMUR-2-AC-CUBED        
1 48927U 21059BA  22264.61175449  .00010396  00000+0  48680-3 0  9997
2 48927  97.5621  34.9626 0016600 121.6198 238.6659 15.19791835 68599
LEMUR-2-MERIMA          
1 48929U 21059BC  22264.58151314  .00012685  00000+0  58064-3 0  9990
2 48929  97.5582  35.0045 0016052 122.2058 238.0736 15.20532554 68602
LEMUR-2-CARLSANTAMARI   
1 48959U 21059CJ  22264.60834694  .00017099  00000+0  73362-3 0  9997
2 48959  97.5611  35.6788 0015231 126.0212 234.2438 15.22688860 68645
LEMUR-2-RAMONAMAE       
1 51021U 22002AP  22264.98369016  .00010085  00000+0  51645-3 0  9990
2 51021  97.4799 330.7402 0010455 101.9271 258.3135 15.16750597 38049
LEMUR-2-KING-JULIEN     
1 51022U 22002AQ  22265.52242507  .00009976  00000+0  51249-3 0  9994
2 51022  97.4781 331.1747 0010137  98.2965 261.9418 15.16643964 38125
LEMUR-2-ROHOVITHSA      
1 51036U 22002BE  22264.90395661  .00006144  00000+0  32993-3 0  9999
2 51036  97.4805 330.4184 0010697 103.1237 257.1190 15.15234914 38015
LEMUR-2-MIRIWARI        
1 51054U 22002BY  22265.43873432  .00005583  00000+0  30062-3 0  9996
2 51054  97.4798 330.9042 0009583  96.7082 263.5242 15.15189932 38097
LEMUR-2-DJIRANG         
1 51058U 22002CC  22264.11871833  .00007038  00000+0  37817-3 0  9999
2 51058  97.4751 329.5394 0008577  97.8695 262.3595 15.15178211 37891
LEMUR-2-KRYWE           
1 51100U 22003G   22265.38333178  .00021426  00000+0  59090-3 0  9997
2 51100  44.9859 253.0324 0007587  55.1649 304.9951 15.36780576 38486
LEMUR-2-TENNYSONLILY    
1 52732U 22057A   22264.59394267  .00009881  00000+0  56077-3 0  9999
2 52732  97.5287  17.8838 0008679 209.0666 151.0083 15.13118200 17966
LEMUR-2-VANDENDRIES     
1 52733U 22057B   22264.57006077  .00005472  00000+0  30846-3 0  9995
2 52733  97.5180  17.7530 0007332 200.4353 159.6586 15.13575308 17968
LEMUR-2-KAREN_B         
1 52736U 22057E   22264.56786430  .00009733  00000+0  54629-3 0  9994
2 52736  97.5160  17.7208 0007242 195.4591 164.6421 15.13527363 17960
LEMUR-2-HANCOM-1        
1 52740U 22057J   22264.30827996  .00008184  00000+0  46411-3 0  9993
2 52740  97.5354  17.7650 0010391 200.7012 159.3799 15.13189281 17926
LEMUR-2-MIMI1307        
1 52769U 22057AP  22264.27282957  .00004090  00000+0  22767-3 0  9992
2 52769  97.5339  17.9362 0014096 179.3606 180.7646 15.14125267 17933
